{
  "type": "FeatureCollection",
  "features": [
    {
      "type": "Feature",
      "properties": {
        "norad_id": 36274,
        "name": "FENGYUN 1C DEB",
        "group": "fengyun-1c-debris",
        "lat": 46.04062540204557,
        "lon": 46.30869478296398,
        "alt_km": 852.552764973776,
        "timestamp": "2025-12-07T22:37:43.368521+00:00",
        "meta_object_name": "FENGYUN 1C DEB",
        "meta_object_id": "1999-025DXB",
        "meta_epoch": "2025-12-06T23:38:05.684928",
        "meta_mean_motion": 14.23354105,
        "meta_eccentricity": 0.00619764,
        "meta_inclination": 99.1397,
        "meta_ra_of_asc_node": 54.9244,
        "meta_arg_of_pericenter": 246.4059,
        "meta_mean_anomaly": 293.7298,
        "meta_ephemeris_type": 0,
        "meta_classification_type": "U",
        "meta_norad_cat_id": 36274,
        "meta_element_set_no": 999,
        "meta_rev_at_epoch": 62903,
        "meta_bstar": 0.004546576,
        "meta_mean_motion_dot": 0.00010482,
        "meta_mean_motion_ddot": 0,
        "tle_line1": "1 36274U 99025DXB 25340.98478802  .00010482  00000+0  45466-2 0  9998",
        "tle_line2": "2 36274  99.1397  54.9244 0061976 246.4059 293.7298 14.23354105629037"
      },
      "geometry": {
        "type": "Point",
        "coordinates": [
          46.30869478296398,
          46.04062540204557
        ]
      }
    },
    {
      "type": "Feature",
      "properties": {
        "norad_id": 36278,
        "name": "FENGYUN 1C DEB",
        "group": "fengyun-1c-debris",
        "lat": 19.859909479815958,
        "lon": -103.21929059321303,
        "alt_km": 823.0568646808351,
        "timestamp": "2025-12-07T22:37:43.368531+00:00",
        "meta_object_name": "FENGYUN 1C DEB",
        "meta_object_id": "1999-025DXF",
        "meta_epoch": "2025-12-04T01:21:08.443872",
        "meta_mean_motion": 14.17353569,
        "meta_eccentricity": 0.00613363,
        "meta_inclination": 99.1236,
        "meta_ra_of_asc_node": 256.1206,
        "meta_arg_of_pericenter": 315.5831,
        "meta_mean_anomaly": 44.0433,
        "meta_ephemeris_type": 0,
        "meta_classification_type": "U",
        "meta_norad_cat_id": 36278,
        "meta_element_set_no": 999,
        "meta_rev_at_epoch": 93353,
        "meta_bstar": 0.0008477729,
        "meta_mean_motion_dot": 1.7e-05,
        "meta_mean_motion_ddot": 0,
        "tle_line1": "1 36278U 99025DXF 25338.05634773  .00001700  00000+0  84777-3 0  9990",
        "tle_line2": "2 36278  99.1236 256.1206 0061336 315.5831  44.0433 14.17353569933530"
      },
      "geometry": {
        "type": "Point",
        "coordinates": [
          -103.21929059321303,
          19.859909479815958
        ]
      }
    },
    {
      "type": "Feature",
      "properties": {
        "norad_id": 36279,
        "name": "FENGYUN 1C DEB",
        "group": "fengyun-1c-debris",
        "lat": 81.43323580126737,
        "lon": -128.80419784902884,
        "alt_km": 793.4525405911236,
        "timestamp": "2025-12-07T22:37:43.368541+00:00",
        "meta_object_name": "FENGYUN 1C DEB",
        "meta_object_id": "1999-025DXG",
        "meta_epoch": "2025-11-25T16:33:32.008320",
        "meta_mean_motion": 14.14714647,
        "meta_eccentricity": 0.00629921,
        "meta_inclination": 98.56,
        "meta_ra_of_asc_node": 308.3956,
        "meta_arg_of_pericenter": 103.3746,
        "meta_mean_anomaly": 257.4461,
        "meta_ephemeris_type": 0,
        "meta_classification_type": "U",
        "meta_norad_cat_id": 36279,
        "meta_element_set_no": 999,
        "meta_rev_at_epoch": 88798,
        "meta_bstar": 0.00016006279,
        "meta_mean_motion_dot": 2.73e-06,
        "meta_mean_motion_ddot": 0,
        "tle_line1": "1 36279U 99025DXG 25329.68995380  .00000273  00000+0  16006-3 0  9998",
        "tle_line2": "2 36279  98.5600 308.3956 0062992 103.3746 257.4461 14.14714647887981"
      },
      "geometry": {
        "type": "Point",
        "coordinates": [
          -128.80419784902884,
          81.43323580126737
        ]
      }
    },
    {
      "type": "Feature",
      "properties": {
        "norad_id": 36280,
        "name": "FENGYUN 1C DEB",
        "group": "fengyun-1c-debris",
        "lat": -34.043347515261544,
        "lon": -174.92390193320446,
        "alt_km": 899.0644194588176,
        "timestamp": "2025-12-07T22:37:43.368551+00:00",
        "meta_object_name": "FENGYUN 1C DEB",
        "meta_object_id": "1999-025DXH",
        "meta_epoch": "2025-12-06T20:54:12.202848",
        "meta_mean_motion": 14.09712397,
        "meta_eccentricity": 0.00634536,
        "meta_inclination": 98.7674,
        "meta_ra_of_asc_node": 10.0168,
        "meta_arg_of_pericenter": 81.983,
        "meta_mean_anomaly": 95.1299,
        "meta_ephemeris_type": 0,
        "meta_classification_type": "U",
        "meta_norad_cat_id": 36280,
        "meta_element_set_no": 999,
        "meta_rev_at_epoch": 86271,
        "meta_bstar": 0.0014591534,
        "meta_mean_motion_dot": 2.567e-05,
        "meta_mean_motion_ddot": 0,
        "tle_line1": "1 36280U 99025DXH 25340.87097457  .00002567  00000+0  14592-2 0  9997",
        "tle_line2": "2 36280  98.7674  10.0168 0063453  81.9830  95.1299 14.09712397862710"
      },
      "geometry": {
        "type": "Point",
        "coordinates": [
          -174.92390193320446,
          -34.043347515261544
        ]
      }
    },
    {
      "type": "Feature",
      "properties": {
        "norad_id": 36281,
        "name": "FENGYUN 1C DEB",
        "group": "fengyun-1c-debris",
        "lat": -69.022967675898,
        "lon": -70.68337671532073,
        "alt_km": 1249.455395664946,
        "timestamp": "2025-12-07T22:37:43.368561+00:00",
        "meta_object_name": "FENGYUN 1C DEB",
        "meta_object_id": "1999-025DXJ",
        "meta_epoch": "2025-12-06T01:05:43.056672",
        "meta_mean_motion": 13.60197188,
        "meta_eccentricity": 0.02892298,
        "meta_inclination": 99.2583,
        "meta_ra_of_asc_node": 262.3422,
        "meta_arg_of_pericenter": 128.1928,
        "meta_mean_anomaly": 234.5643,
        "meta_ephemeris_type": 0,
        "meta_classification_type": "U",
        "meta_norad_cat_id": 36281,
        "meta_element_set_no": 999,
        "meta_rev_at_epoch": 84426,
        "meta_bstar": 0.003926612,
        "meta_mean_motion_dot": 3.837e-05,
        "meta_mean_motion_ddot": 0,
        "tle_line1": "1 36281U 99025DXJ 25340.04563723  .00003837  00000+0  39266-2 0  9997",
        "tle_line2": "2 36281  99.2583 262.3422 0289229 128.1928 234.5643 13.60197188844267"
      },
      "geometry": {
        "type": "Point",
        "coordinates": [
          -70.68337671532073,
          -69.022967675898
        ]
      }
    },
    {
      "type": "Feature",
      "properties": {
        "norad_id": 36283,
        "name": "FENGYUN 1C DEB",
        "group": "fengyun-1c-debris",
        "lat": 57.186128450578536,
        "lon": 140.90229816391485,
        "alt_km": 518.0293491416451,
        "timestamp": "2025-12-07T22:37:43.368571+00:00",
        "meta_object_name": "FENGYUN 1C DEB",
        "meta_object_id": "1999-025DXL",
        "meta_epoch": "2025-11-28T03:35:45.168576",
        "meta_mean_motion": 15.05092252,
        "meta_eccentricity": 0.00695379,
        "meta_inclination": 99.4205,
        "meta_ra_of_asc_node": 294.0447,
        "meta_arg_of_pericenter": 95.6406,
        "meta_mean_anomaly": 265.275,
        "meta_ephemeris_type": 0,
        "meta_classification_type": "U",
        "meta_norad_cat_id": 36283,
        "meta_element_set_no": 999,
        "meta_rev_at_epoch": 66446,
        "meta_bstar": 0.0018499593,
        "meta_mean_motion_dot": 0.00027782,
        "meta_mean_motion_ddot": 0,
        "tle_line1": "1 36283U 99025DXL 25332.14982834  .00027782  00000+0  18500-2 0  9992",
        "tle_line2": "2 36283  99.4205 294.0447 0069537  95.6406 265.2750 15.05092252664467"
      },
      "geometry": {
        "type": "Point",
        "coordinates": [
          140.90229816391485,
          57.186128450578536
        ]
      }
    },
    {
      "type": "Feature",
      "properties": {
        "norad_id": 36644,
        "name": "FENGYUN 1C DEB",
        "group": "fengyun-1c-debris",
        "lat": 49.306192073986516,
        "lon": -48.8667729305407,
        "alt_km": 932.845799856842,
        "timestamp": "2025-12-07T22:37:43.368581+00:00",
        "meta_object_name": "FENGYUN 1C DEB",
        "meta_object_id": "1999-025DXN",
        "meta_epoch": "2025-12-06T15:56:19.275936",
        "meta_mean_motion": 13.59167664,
        "meta_eccentricity": 0.02857814,
        "meta_inclination": 98.4234,
        "meta_ra_of_asc_node": 120.1104,
        "meta_arg_of_pericenter": 196.1478,
        "meta_mean_anomaly": 163.0413,
        "meta_ephemeris_type": 0,
        "meta_classification_type": "U",
        "meta_norad_cat_id": 36644,
        "meta_element_set_no": 999,
        "meta_rev_at_epoch": 61485,
        "meta_bstar": 0.0026178612,
        "meta_mean_motion_dot": 2.485e-05,
        "meta_mean_motion_ddot": 0,
        "tle_line1": "1 36644U 99025DXN 25340.66411199  .00002485  00000+0  26179-2 0  9994",
        "tle_line2": "2 36644  98.4234 120.1104 0285781 196.1478 163.0413 13.59167664614851"
      },
      "geometry": {
        "type": "Point",
        "coordinates": [
          -48.8667729305407,
          49.306192073986516
        ]
      }
    }
  ]
}